NORAD_CAT_ID,OBJECT_NAME,OBJECT_TYPE,EPOCH,MEAN_MOTION,ECCENTRICITY,INCLINATION,RA_OF_ASC_NODE,ARG_OF_PERICENTER,MEAN_ANOMALY,BSTAR,MEAN_MOTION_DOT,MEAN_MOTION_DDOT,TLE_LINE0,TLE_LINE1,TLE_LINE2,SEMIMAJOR_AXIS,PERIOD,APOGEE,PERIGEE,DECAYED
54099.0,STARLINK-5198,PAYLOAD,2024-07-24 22:17:47,15.08843075,0.0001199,53.2174,114.6828,92.1699,267.943,0.00012955,1.775e-05,0.0,0 STARLINK-5198,1 54099U 22136BA  24206.92901699  .00001775  00000-0  12955-3 0  9995,2 54099  53.2174 114.6828 0001199  92.1699 267.9430 15.08843075 97500,6917.871,95.437,540.565,538.907,0.0
54099.0,STARLINK-5198,PAYLOAD,2024-07-25 03:03:56,15.08847487,0.0001171,53.2169,113.7907,93.1061,267.0065,0.00055929,8.626e-05,0.0,0 STARLINK-5198,1 54099U 22136BA  24207.12773869  .00008626  00000-0  55929-3 0  9994,2 54099  53.2169 113.7907 0001171  93.1061 267.0065 15.08847487 98008,6917.858,95.437,540.533,538.912,0.0
54099.0,STARLINK-5198,PAYLOAD,2024-07-25 22:08:34,15.08852693,0.0001145,53.2162,110.2228,95.5202,264.5921,0.00042698,6.516e-05,0.0,0 STARLINK-5198,1 54099U 22136BA  24207.92261684  .00006516  00000-0  42698-3 0  9994,2 54099  53.2162 110.2228 0001145  95.5202 264.5921 15.08852693 97651,6917.842,95.437,540.499,538.914,0.0
54099.0,STARLINK-5198,PAYLOAD,2024-07-26 01:19:20,15.08851516,9.55e-05,53.2151,109.6275,111.8087,248.3006,0.00035121,5.308e-05,0.0,0 STARLINK-5198,1 54099U 22136BA  24208.05509528  .00005308  00000-0  35121-3 0  9992,2 54099  53.2151 109.6275 0000955 111.8087 248.3006 15.08851516 98146,6917.845,95.437,540.371,539.05,0.0
54099.0,STARLINK-5198,PAYLOAD,2024-07-26 10:51:38,15.08867756,9.71e-05,53.2155,107.8402,102.3704,257.7396,0.00078898,0.000123,0.0,0 STARLINK-5198,1 54099U 22136BA  24208.45252812  .00012300  00000-0  78898-3 0  9995,2 54099  53.2155 107.8402 0000971 102.3704 257.7396 15.08867756 98207,6917.796,95.436,540.332,538.989,0.0
54099.0,STARLINK-5198,PAYLOAD,2024-07-27 21:50:08,15.0885588,0.000102,53.2157,101.2991,95.747,264.3639,0.0010887,0.00017089,0.0,0 STARLINK-5198,1 54099U 22136BA  24209.90981709  .00017089  00000-0  10887-2 0  9992,2 54099  53.2157 101.2991 0001020  95.7470 264.3639 15.08855880 97951,6917.832,95.437,540.402,538.991,0.0
54099.0,STARLINK-5198,PAYLOAD,2024-07-28 04:11:41,15.08822974,0.000184,53.216,100.1024,43.4905,316.6232,0.00017719,2.532e-05,0.0,0 STARLINK-5198,1 54099U 22136BA  24210.17478290  .00002532  00000-0  17719-3 0  9998,2 54099  53.2160 100.1024 0001840  43.4905 316.6232 15.08822974 98468,6917.932,95.439,541.07,538.525,0.0
54099.0,STARLINK-5198,PAYLOAD,2024-07-28 23:16:18,15.08838993,0.0001194,53.2158,96.5429,81.5427,278.5701,0.00016267,2.302e-05,0.0,0 STARLINK-5198,1 54099U 22136BA  24210.96966239  .00002302  00000-0  16267-3 0  9992,2 54099  53.2158  96.5429 0001194  81.5427 278.5701 15.08838993 98113,6917.883,95.438,540.574,538.922,0.0
54099.0,STARLINK-5198,PAYLOAD,2024-07-29 23:07:05,15.08841263,0.0001231,53.216,92.0826,83.1366,276.9766,0.00027221,4.047e-05,0.0,0 STARLINK-5198,1 54099U 22136BA  24211.96326363  .00004047  00000-0  27221-3 0  9991,2 54099  53.2160  92.0826 0001231  83.1366 276.9766 15.08841263 98263,6917.877,95.437,540.593,538.89,0.0
54099.0,STARLINK-5198,PAYLOAD,2024-07-30 08:39:24,15.0885565,0.0001243,53.2164,90.2981,82.6023,277.511,0.00041513,6.328e-05,0.0,0 STARLINK-5198,1 54099U 22136BA  24212.36069596  .00006328  00000-0  41513-3 0  9992,2 54099  53.2164  90.2981 0001243  82.6023 277.5110 15.08855650 98799,6917.833,95.437,540.557,538.838,0.0
54099.0,STARLINK-5198,PAYLOAD,2024-07-30 16:36:20,15.08836146,0.0001195,53.2162,88.8113,81.7508,278.3619,-8.0915e-05,-1.575e-05,0.0,0 STARLINK-5198,1 54099U 22136BA  24212.69190320 -.00001575  00000-0 -80915-4 0  9999,2 54099  53.2162  88.8113 0001195  81.7508 278.3619 15.08836146 98849,6917.892,95.438,540.584,538.93,0.0
54099.0,STARLINK-5198,PAYLOAD,2024-07-30 22:57:52,15.08847736,0.0001619,53.2169,87.6247,99.6872,260.4303,0.0001421,1.975e-05,0.0,0 STARLINK-5198,1 54099U 22136BA  24212.95685895  .00001975  00000-0  14210-3 0  9990,2 54099  53.2169  87.6247 0001619  99.6872 260.4303 15.08847736 98416,6917.857,95.437,540.842,538.602,0.0
54099.0,STARLINK-5198,PAYLOAD,2024-07-31 08:30:10,15.0886095,0.0001453,53.2175,85.8415,93.9587,266.1572,0.00039569,6.019e-05,0.0,0 STARLINK-5198,1 54099U 22136BA  24213.35429272  .00006019  00000-0  39569-3 0  9998,2 54099  53.2175  85.8415 0001453  93.9587 266.1572 15.08860950 98948,6917.816,95.436,540.687,538.676,0.0
54099.0,STARLINK-5198,PAYLOAD,2024-07-31 21:13:16,15.08834481,0.0001611,53.2167,83.4591,78.0908,282.0264,-3.1605e-05,-7.91e-06,0.0,0 STARLINK-5198,1 54099U 22136BA  24213.88422372 -.00000791  00000-0 -31605-4 0  9997,2 54099  53.2167  83.4591 0001611  78.0908 282.0264 15.08834481 99020,6917.897,95.438,540.877,538.648,0.0
54099.0,STARLINK-5198,PAYLOAD,2024-07-31 22:48:40,15.08834828,0.0001483,53.2161,83.1613,72.1616,287.9537,0.00014224,1.976e-05,0.0,0 STARLINK-5198,1 54099U 22136BA  24213.95046365  .00001976  00000-0  14224-3 0  9990,2 54099  53.2161  83.1613 0001483  72.1616 287.9537 15.08834828 98564,6917.896,95.438,540.787,538.735,0.0
54099.0,STARLINK-5198,PAYLOAD,2024-08-01 08:20:58,15.08852087,0.0001481,53.2161,81.3788,81.0777,279.0383,0.00084427,0.00013179,0.0,0 STARLINK-5198,1 54099U 22136BA  24214.34790257  .00013179  00000-0  84427-3 0  9990,2 54099  53.2161  81.3788 0001481  81.0777 279.0383 15.08852087 99099,6917.843,95.437,540.733,538.684,0.0
54099.0,STARLINK-5198,PAYLOAD,2024-08-01 21:04:03,15.0885489,0.0001546,53.2155,79.0005,81.1061,279.0106,0.00094294,0.00014757,0.0,0 STARLINK-5198,1 54099U 22136BA  24214.87782249  .00014757  00000-0  94294-3 0  9996,2 54099  53.2155  79.0005 0001546  81.1061 279.0106 15.08854890 99173,6917.835,95.437,540.769,538.63,0.0
54099.0,STARLINK-5198,PAYLOAD,2024-08-02 08:11:45,15.08867076,0.0001586,53.2161,76.9171,79.5052,280.6119,0.00088042,0.00013762,0.0,0 STARLINK-5198,1 54099U 22136BA  24215.34149565  .00013762  00000-0  88042-3 0  9996,2 54099  53.2161  76.9171 0001586  79.5052 280.6119 15.08867076 98772,6917.798,95.436,540.76,538.565,0.0
54099.0,STARLINK-5198,PAYLOAD,2024-08-02 20:54:50,15.08829844,0.0001421,53.2153,74.5402,87.2514,272.8641,1.5823e-05,-3.6e-07,0.0,0 STARLINK-5198,1 54099U 22136BA  24215.87142311 -.00000036  00000-0  15823-4 0  9995,2 54099  53.2153  74.5402 0001421  87.2514 272.8641 15.08829844 99327,6917.911,95.438,540.759,538.793,0.0
54099.0,STARLINK-5198,PAYLOAD,2024-08-03 08:02:33,15.08828988,0.000146,53.216,72.4584,87.2747,272.8412,0.00087596,0.00013676,0.0,0 STARLINK-5198,1 54099U 22136BA  24216.33511109  .00013676  00000-0  87596-3 0  9990,2 54099  53.2160  72.4584 0001460  87.2747 272.8412 15.08828988 98923,6917.914,95.438,540.789,538.769,0.0
54099.0,STARLINK-5198,PAYLOAD,2024-08-03 20:45:38,15.08853791,0.0001414,53.2159,70.0784,88.5162,271.5992,0.0013626,0.00021472,0.0,0 STARLINK-5198,1 54099U 22136BA  24216.86503045  .00021472  00000-0  13626-2 0  9993,2 54099  53.2159  70.0784 0001414  88.5162 271.5992 15.08853791 99000,6917.838,95.437,540.681,538.725,0.0
54099.0,STARLINK-5198,PAYLOAD,2024-08-04 14:14:52,15.08870461,0.0002774,53.216,66.807,92.3719,267.7591,0.0011499,0.00018076,0.0,0 STARLINK-5198,1 54099U 22136BA  24217.59366578  .00018076  00000-0  11499-2 0  9994,2 54099  53.2160  66.8070 0002774  92.3719 267.7591 15.08870461 99111,6917.787,95.436,541.571,537.733,0.0
54099.0,STARLINK-5198,PAYLOAD,2024-08-04 20:36:25,15.08865884,0.0001382,53.2166,65.6183,100.6976,259.4172,0.0031582,0.0005037,0.0,0 STARLINK-5198,1 54099U 22136BA  24217.85862430  .00050370  00000-0  31582-2 0  9999,2 54099  53.2166  65.6183 0001382 100.6976 259.4172 15.08865884 99623,6917.801,95.436,540.622,538.71,0.0
54099.0,STARLINK-5198,PAYLOAD,2024-08-05 10:54:53,15.08861445,0.0001327,53.2154,62.9401,97.7412,262.3731,0.0014958,0.00023612,0.0,0 STARLINK-5198,1 54099U 22136BA  24218.45478251  .00023612  00000-0  14958-2 0  9997,2 54099  53.2154  62.9401 0001327  97.7412 262.3731 15.08861445 99716,6917.815,95.436,540.598,538.762,0.0
54099.0,STARLINK-5198,PAYLOAD,2024-08-05 20:27:12,15.08834362,0.0001355,53.2156,61.1571,85.4818,274.6328,0.00024196,3.564e-05,0.0,0 STARLINK-5198,1 54099U 22136BA  24218.85222751  .00003564  00000-0  24196-3 0  9993,2 54099  53.2156  61.1571 0001355  85.4818 274.6328 15.08834362 99774,6917.898,95.438,540.7,538.825,0.0
54099.0,STARLINK-5198,PAYLOAD,2024-08-06 05:59:31,15.08850813,0.0001277,53.2159,59.3731,84.7833,275.3305,0.0010676,0.00016749,0.0,0 STARLINK-5198,1 54099U 22136BA  24219.24966663  .00016749  00000-0  10676-2 0  9990,2 54099  53.2159  59.3731 0001277  84.7833 275.3305 15.08850813 99835,6917.847,95.437,540.596,538.829,0.0
54099.0,STARLINK-5198,PAYLOAD,2024-08-06 13:56:27,15.08855976,0.0002834,53.2168,57.8862,85.3433,274.7883,0.0015499,0.00024476,0.0,0 STARLINK-5198,1 54099U 22136BA  24219.58087263  .00024476  00000-0  15499-2 0  9991,2 54099  53.2168  57.8862 0002834  85.3433 274.7883 15.08855976 99419,6917.832,95.437,541.657,537.736,0.0
54099.0,STARLINK-5198,PAYLOAD,2024-08-06 20:17:59,15.08841952,0.0001465,53.218,56.6999,107.5352,252.58,0.00048667,7.466e-05,0.0,0 STARLINK-5198,1 54099U 22136BA  24219.84583066  .00007466  00000-0  48667-3 0  9996,2 54099  53.2180  56.6999 0001465 107.5352 252.5800 15.08841952 99925,6917.874,95.437,540.753,538.726,0.0
54099.0,STARLINK-5198,PAYLOAD,2024-08-07 18:33:23,15.08849538,0.0001438,53.2177,52.5377,111.3211,248.7935,0.0004112,6.264e-05,0.0,0 STARLINK-5198,1 54099U 22136BA  24220.77318808  .00006264  00000-0  41120-3 0  9992,2 54099  53.2177  52.5377 0001438 111.3211 248.7935 15.08849538 99590,6917.851,95.437,540.711,538.721,0.0
54099.0,STARLINK-5198,PAYLOAD,2024-08-08 12:02:37,15.08853783,0.0001395,53.2176,49.2667,109.3723,250.742,0.00034577,5.221e-05,0.0,0 STARLINK-5198,1 54099U 22136BA  24221.50182387  .00005221  00000-0  34577-3 0  9995,2 54099  53.2176  49.2667 0001395 109.3723 250.7420 15.08853783 99703,6917.838,95.437,540.668,538.738,0.0
